*******************************************************************************
Ephemeris / WWW_USER Mon Mar 24 08:32:04 2025 Pasadena, USA      / Horizons    
*******************************************************************************
Target body name: (2018 WV1)                      {source: JPL#17}
Center body name: Earth (399)                     {source: DE441}
Center-site name: Mauna Kea
*******************************************************************************
Start time      : A.D. 2018-Sep-26 04:24:00.0000 UT      
Stop  time      : A.D. 2018-Sep-26 16:02:00.0000 UT      
Step-size       : 1 minutes
*******************************************************************************
Target pole/equ : undefined
Target radii    : undefined                                                    
Center geodetic : 204.5278, 19.8260847, 4.21024   {E-lon(deg),Lat(deg),Alt(km)}
Center cylindric: 204.5278, 6006.35451, 2151.0229 {E-lon(deg),Dxy(km),Dz(km)}
Center pole/equ : ITRF93                          {East-longitude positive}
Center radii    : 6378.137, 6378.137, 6356.752 km {Equator_a, b, pole_c}       
Target primary  : Sun
Vis. interferer : MOON (R_eq= 1737.400) km        {source: DE441}
Rel. light bend : Sun                             {source: DE441}
Rel. lght bnd GM: 1.3271E+11 km^3/s^2                                          
Small-body perts: Yes                             {source: SB441-N16}
Atmos refraction: NO (AIRLESS)
RA format       : HMS
Time format     : CAL 
Calendar mode   : Mixed Julian/Gregorian
RTS-only print  : NO       
EOP file        : eop.250321.p250617                                           
EOP coverage    : DATA-BASED 1962-JAN-20 TO 2025-MAR-21. PREDICTS-> 2025-JUN-16
Units conversion: 1 au= 149597870.700 km, c= 299792.458 km/s, 1 day= 86400.0 s 
Table cut-offs 1: Elevation (-90.0deg=NO ),Airmass (>38.000=NO), Daylight (YES)
Table cut-offs 2: Solar elongation (  0.0,180.0=NO ),Local Hour Angle( 0.0=NO )
Table cut-offs 3: RA/DEC angular rate (     0.0=NO )                           
*******************************************************************************
Initial IAU76/J2000 heliocentric ecliptic osculating elements (au, days, deg.):
  EPOCH=  2458458.5 ! 2018-Dec-06.00 (TDB)         Residual RMS= .12928        
   EC= .06869100257422787  QR= .9715505345748198   TP= 2458416.866413563       
   OM= 248.5061090469913   W=  141.3742304527303   IN= 1.905403987972275       
  Equivalent ICRF heliocentric cartesian coordinates (au, au/d):
   X= 2.787163119783287E-01  Y= 8.719775267121872E-01  Z= 3.748421051204766E-01
  VX=-1.676682657337402E-02 VY= 5.516972965834891E-03 VZ= 1.749720915605096E-03
Asteroid physical parameters (km, seconds, rotational period in hours):        
   GM= n.a.                RAD= n.a.               ROTPER= n.a.                
   H= 30.3                 G= .150                 B-V= n.a.                   
                           ALBEDO= n.a.            STYP= n.a.                  
*******************************************************************************
 Date__(UT)__HR:MN     R.A._________(ICRF)_________DEC
******************************************************
$$SOE
 2018-Sep-26 14:39  m  01 51 46.597058 +18 06 24.69787
 2018-Sep-26 14:40  m  01 51 46.601216 +18 06 25.01946
 2018-Sep-26 14:41  m  01 51 46.605451 +18 06 25.34066
 2018-Sep-26 14:42  m  01 51 46.609763 +18 06 25.66145
 2018-Sep-26 14:43  m  01 51 46.614154 +18 06 25.98184
 2018-Sep-26 14:44  m  01 51 46.618624 +18 06 26.30184
 2018-Sep-26 14:45  m  01 51 46.623172 +18 06 26.62144
 2018-Sep-26 14:46  m  01 51 46.627799 +18 06 26.94064
 2018-Sep-26 14:47  m  01 51 46.632507 +18 06 27.25946
 2018-Sep-26 14:48  m  01 51 46.637294 +18 06 27.57788
 2018-Sep-26 14:49  m  01 51 46.642162 +18 06 27.89591
 2018-Sep-26 14:50  m  01 51 46.647110 +18 06 28.21356
 2018-Sep-26 14:51  m  01 51 46.652140 +18 06 28.53082
 2018-Sep-26 14:52  m  01 51 46.657251 +18 06 28.84770
 2018-Sep-26 14:53  m  01 51 46.662444 +18 06 29.16419
 2018-Sep-26 14:54  m  01 51 46.667720 +18 06 29.48030
 2018-Sep-26 14:55  m  01 51 46.673078 +18 06 29.79603
 2018-Sep-26 14:56  m  01 51 46.678519 +18 06 30.11139
 2018-Sep-26 14:57  m  01 51 46.684044 +18 06 30.42637
 2018-Sep-26 14:58  m  01 51 46.689652 +18 06 30.74097
 2018-Sep-26 14:59 Am  01 51 46.695345 +18 06 31.05520
 2018-Sep-26 15:00 Am  01 51 46.701122 +18 06 31.36906
 2018-Sep-26 15:01 Am  01 51 46.706984 +18 06 31.68255
 2018-Sep-26 15:02 Am  01 51 46.712931 +18 06 31.99567
 2018-Sep-26 15:03 Am  01 51 46.718964 +18 06 32.30842
 2018-Sep-26 15:04 Am  01 51 46.725083 +18 06 32.62081
 2018-Sep-26 15:05 Am  01 51 46.731288 +18 06 32.93284
 2018-Sep-26 15:06 Am  01 51 46.737580 +18 06 33.24450
 2018-Sep-26 15:07 Am  01 51 46.743959 +18 06 33.55581
 2018-Sep-26 15:08 Am  01 51 46.750425 +18 06 33.86676
 2018-Sep-26 15:09 Am  01 51 46.756979 +18 06 34.17735
 2018-Sep-26 15:10 Am  01 51 46.763621 +18 06 34.48759
 2018-Sep-26 15:11 Am  01 51 46.770352 +18 06 34.79747
 2018-Sep-26 15:12 Am  01 51 46.777171 +18 06 35.10701
 2018-Sep-26 15:13 Am  01 51 46.784079 +18 06 35.41619
 2018-Sep-26 15:14 Am  01 51 46.791077 +18 06 35.72503
 2018-Sep-26 15:15 Am  01 51 46.798164 +18 06 36.03352
 2018-Sep-26 15:16 Am  01 51 46.805342 +18 06 36.34167
 2018-Sep-26 15:17 Am  01 51 46.812610 +18 06 36.64947
 2018-Sep-26 15:18 Am  01 51 46.819969 +18 06 36.95694
 2018-Sep-26 15:19 Am  01 51 46.827419 +18 06 37.26406
 2018-Sep-26 15:20 Am  01 51 46.834960 +18 06 37.57085
 2018-Sep-26 15:21 Am  01 51 46.842593 +18 06 37.87731
 2018-Sep-26 15:22 Am  01 51 46.850318 +18 06 38.18343
 2018-Sep-26 15:23 Am  01 51 46.858136 +18 06 38.48922
 2018-Sep-26 15:24 Am  01 51 46.866046 +18 06 38.79468
 2018-Sep-26 15:25 Nm  01 51 46.874050 +18 06 39.09982
 2018-Sep-26 15:26 Nm  01 51 46.882147 +18 06 39.40462
 2018-Sep-26 15:27 Nm  01 51 46.890337 +18 06 39.70911
 2018-Sep-26 15:28 Nm  01 51 46.898622 +18 06 40.01327
 2018-Sep-26 15:29 Nm  01 51 46.907000 +18 06 40.31711
 2018-Sep-26 15:30 Nm  01 51 46.915474 +18 06 40.62063
 2018-Sep-26 15:31 Nm  01 51 46.924042 +18 06 40.92384
 2018-Sep-26 15:32 Nm  01 51 46.932706 +18 06 41.22673
 2018-Sep-26 15:33 Nm  01 51 46.941465 +18 06 41.52931
 2018-Sep-26 15:34 Nm  01 51 46.950320 +18 06 41.83157
 2018-Sep-26 15:35 Nm  01 51 46.959272 +18 06 42.13353
 2018-Sep-26 15:36 Nm  01 51 46.968319 +18 06 42.43518
 2018-Sep-26 15:37 Nm  01 51 46.977464 +18 06 42.73653
 2018-Sep-26 15:38 Nm  01 51 46.986706 +18 06 43.03757
 2018-Sep-26 15:39 Nm  01 51 46.996044 +18 06 43.33831
 2018-Sep-26 15:40 Nm  01 51 47.005481 +18 06 43.63876
 2018-Sep-26 15:41 Nm  01 51 47.015016 +18 06 43.93890
 2018-Sep-26 15:42 Nm  01 51 47.024648 +18 06 44.23875
 2018-Sep-26 15:43 Nm  01 51 47.034380 +18 06 44.53830
 2018-Sep-26 15:44 Nm  01 51 47.044210 +18 06 44.83757
 2018-Sep-26 15:45 Nm  01 51 47.054139 +18 06 45.13654
 2018-Sep-26 15:46 Nm  01 51 47.064168 +18 06 45.43522
 2018-Sep-26 15:47 Nm  01 51 47.074296 +18 06 45.73362
 2018-Sep-26 15:48 Nm  01 51 47.084524 +18 06 46.03174
 2018-Sep-26 15:49 Nm  01 51 47.094852 +18 06 46.32957
 2018-Sep-26 15:50 Cm  01 51 47.105281 +18 06 46.62712
 2018-Sep-26 15:51 Cm  01 51 47.115811 +18 06 46.92440
 2018-Sep-26 15:52 Cm  01 51 47.126441 +18 06 47.22140
 2018-Sep-26 15:53 Cm  01 51 47.137173 +18 06 47.51812
 2018-Sep-26 15:54 Cm  01 51 47.148007 +18 06 47.81457
 2018-Sep-26 15:55 Cm  01 51 47.158942 +18 06 48.11076
 2018-Sep-26 15:56 Cm  01 51 47.169979 +18 06 48.40667
 2018-Sep-26 15:57 Cm  01 51 47.181119 +18 06 48.70232
 2018-Sep-26 15:58 Cm  01 51 47.192361 +18 06 48.99770
 2018-Sep-26 15:59 Cm  01 51 47.203706 +18 06 49.29282
 2018-Sep-26 16:00 Cm  01 51 47.215154 +18 06 49.58769
 2018-Sep-26 16:01 Cm  01 51 47.226706 +18 06 49.88229
 2018-Sep-26 16:02 Cm  01 51 47.238361 +18 06 50.17664
